[{"OBJECT_NAME":"STARLINK-5268","OBJECT_ID":"2022-141AM","EPOCH":"2026-03-09T04:08:06.425376","MEAN_MOTION":15.08851902,"ECCENTRICITY":0.00014608,"INCLINATION":53.2195,"RA_OF_ASC_NODE":356.1698,"ARG_OF_PERICENTER":89.4998,"MEAN_ANOMALY":270.6161,"EPHEMERIS_TYPE":0,"CLASSIFICATION_TYPE":"U","NORAD_CAT_ID":54192,"ELEMENT_SET_NO":999,"REV_AT_EPOCH":18592,"BSTAR":0.00020290201,"MEAN_MOTION_DOT":2.944e-5,"MEAN_MOTION_DDOT":0},{"OBJECT_NAME":"COSMOS 2535 DEB","OBJECT_ID":"2019-039H","EPOCH":"2026-03-09T01:37:49.505376","MEAN_MOTION":15.12536261,"ECCENTRICITY":0.00199509,"INCLINATION":97.5365,"RA_OF_ASC_NODE":108.6978,"ARG_OF_PERICENTER":50.248,"MEAN_ANOMALY":310.0505,"EPHEMERIS_TYPE":0,"CLASSIFICATION_TYPE":"U","NORAD_CAT_ID":44631,"ELEMENT_SET_NO":999,"REV_AT_EPOCH":34980,"BSTAR":0.00071319108,"MEAN_MOTION_DOT":0.00012434,"MEAN_MOTION_DDOT":0}]
